{
    "links": {
        "self": "http://www.neowsapp.com/rest/v1/neo/3781576?api_key=iIulBulltgU6a56xZRHN4H3l9WmuAYTsLGpBGhQ2"
    },
    "id": "3781576",
    "neo_reference_id": "3781576",
    "name": "(2017 RE16)",
    "designation": "2017 RE16",
    "nasa_jpl_url": "http://ssd.jpl.nasa.gov/sbdb.cgi?sstr=3781576",
    "absolute_magnitude_h": 20.5,
    "estimated_diameter": {
        "kilometers": {
            "estimated_diameter_min": 0.2111324448,
            "estimated_diameter_max": 0.4721064988
        },
        "meters": {
            "estimated_diameter_min": 211.1324447897,
            "estimated_diameter_max": 472.1064988055
        },
        "miles": {
            "estimated_diameter_min": 0.1311915784,
            "estimated_diameter_max": 0.2933532873
        },
        "feet": {
            "estimated_diameter_min": 692.6917701639,
            "estimated_diameter_max": 1548.9058855411
        }
    },
    "is_potentially_hazardous_asteroid": false,
    "close_approach_data": [
        {
            "close_approach_date": "1984-11-28",
            "close_approach_date_full": "1984-Nov-28 19:28",
            "epoch_date_close_approach": 470518080000,
            "relative_velocity": {
                "kilometers_per_second": "2.5650164162",
                "kilometers_per_hour": "9234.0590984167",
                "miles_per_hour": "5737.6852214579"
            },
            "miss_distance": {
                "astronomical": "0.2883540422",
                "lunar": "112.1697224158",
                "kilometers": "43137150.519010114",
                "miles": "26804182.4060590132"
            },
            "orbiting_body": "Earth"
        },
        {
            "close_approach_date": "1995-11-07",
            "close_approach_date_full": "1995-Nov-07 18:26",
            "epoch_date_close_approach": 815768760000,
            "relative_velocity": {
                "kilometers_per_second": "2.4182478361",
                "kilometers_per_hour": "8705.6922100068",
                "miles_per_hour": "5409.3785846012"
            },
            "miss_distance": {
                "astronomical": "0.4422365114",
                "lunar": "172.0300029346",
                "kilometers": "66157640.141670718",
                "miles": "41108451.3598151884"
            },
            "orbiting_body": "Earth"
        },
        {
            "close_approach_date": "2031-01-12",
            "close_approach_date_full": "2031-Jan-12 08:44",
            "epoch_date_close_approach": 1925973840000,
            "relative_velocity": {
                "kilometers_per_second": "1.4074358785",
                "kilometers_per_hour": "5066.7691626879",
                "miles_per_hour": "3148.2933166713"
            },
            "miss_distance": {
                "astronomical": "1.8458098483",
                "lunar": "718.0200309887",
                "kilometers": "276129221.730703121",
                "miles": "171578742.1714642298"
            },
            "orbiting_body": "Juptr"
        },
        {
            "close_approach_date": "2032-12-25",
            "close_approach_date_full": "2032-Dec-25 16:38",
            "epoch_date_close_approach": 1987605480000,
            "relative_velocity": {
                "kilometers_per_second": "1.081720921",
                "kilometers_per_hour": "3894.1953156697",
                "miles_per_hour": "2419.7015282282"
            },
            "miss_distance": {
                "astronomical": "0.4276255112",
                "lunar": "166.3463238568",
                "kilometers": "63971865.633181144",
                "miles": "39750274.0597580272"
            },
            "orbiting_body": "Earth"
        },
        {
            "close_approach_date": "2043-11-27",
            "close_approach_date_full": "2043-Nov-27 12:27",
            "epoch_date_close_approach": 2332240020000,
            "relative_velocity": {
                "kilometers_per_second": "2.5298369992",
                "kilometers_per_hour": "9107.4131970986",
                "miles_per_hour": "5658.9923834972"
            },
            "miss_distance": {
                "astronomical": "0.298797903",
                "lunar": "116.232384267",
                "kilometers": "44699529.84926661",
                "miles": "27774999.904474818"
            },
            "orbiting_body": "Earth"
        }
    ],
    "orbital_data": {
        "orbit_id": "5",
        "orbit_determination_date": "2019-12-04 07:16:16",
        "first_observation_date": "2017-09-12",
        "last_observation_date": "2017-11-16",
        "data_arc_in_days": 65,
        "observations_used": 28,
        "orbit_uncertainty": "6",
        "minimum_orbit_intersection": ".292687",
        "jupiter_tisserand_invariant": "3.366",
        "epoch_osculation": "2459000.5",
        "eccentricity": ".4716462759024723",
        "semi_major_axis": "2.390987269179128",
        "inclination": "5.386126522791913",
        "ascending_node_longitude": "190.1112700084015",
        "orbital_period": "1350.405886647792",
        "perihelion_distance": "1.26328702794057",
        "perihelion_argument": "242.8598091171777",
        "aphelion_distance": "3.518687510417685",
        "perihelion_time": "2459500.111123696798",
        "mean_anomaly": "226.8104113665215",
        "mean_motion": ".266586515624316",
        "equinox": "J2000",
        "orbit_class": {
            "orbit_class_type": "AMO",
            "orbit_class_description": "Near-Earth asteroid orbits similar to that of 1221 Amor",
            "orbit_class_range": "1.017 AU < q (perihelion) < 1.3 AU"
        }
    },
    "is_sentry_object": false
}